[{"OBJECT_NAME":"CHAMRAN-1","OBJECT_ID":"2024-165B","EPOCH":"2026-03-09T21:50:33.228384","MEAN_MOTION":15.10235792,"ECCENTRICITY":0.0045019,"INCLINATION":64.0789,"RA_OF_ASC_NODE":8.4365,"ARG_OF_PERICENTER":310.8781,"MEAN_ANOMALY":48.8437,"EPHEMERIS_TYPE":0,"CLASSIFICATION_TYPE":"U","NORAD_CAT_ID":61072,"ELEMENT_SET_NO":999,"REV_AT_EPOCH":8166,"BSTAR":0.0004432,"MEAN_MOTION_DOT":7.263e-5,"MEAN_MOTION_DDOT":0},{"OBJECT_NAME":"BUZZER-1","OBJECT_ID":"2025-009A","EPOCH":"2026-03-09T17:24:25.753248","MEAN_MOTION":15.20823037,"ECCENTRICITY":0.00067423,"INCLINATION":97.3973,"RA_OF_ASC_NODE":148.7619,"ARG_OF_PERICENTER":334.5264,"MEAN_ANOMALY":25.5639,"EPHEMERIS_TYPE":0,"CLASSIFICATION_TYPE":"U","NORAD_CAT_ID":62609,"ELEMENT_SET_NO":999,"REV_AT_EPOCH":6357,"BSTAR":0.00037809783,"MEAN_MOTION_DOT":8.28e-5,"MEAN_MOTION_DDOT":0}]
