CHAMRAN-1               
1 61072U 24165B   26068.91010681  .00007263  00000+0  44320-3 0  9995
2 61072  64.0789   8.4365 0045019 310.8781  48.8437 15.10235792 81665
BUZZER-1                
1 62609U 25009A   26068.72529807  .00008280  00000+0  37810-3 0  9990
2 62609  97.3973 148.7619 0006742 334.5264  25.5639 15.20823037 63577
